{"type": "FeatureCollection", "features": [ {"type": "Feature", "properties": {"norad_id": 66830, "name": "STARLINK-35881", "group": "last-30-days", "lat": 26.064552977948935, "lon": -31.45981092322678, "alt_km": 408.7714921341749, "timestamp": "2025-12-27T04:40:44.219248+00:00", "meta": {"OBJECT_NAME": "STARLINK-35881", "OBJECT_ID": "2025-280K", "EPOCH": "2025-12-26T21:50:27.973536", "MEAN_MOTION": 15.5255753, "ECCENTRICITY": 0.00033369, "INCLINATION": 70.0006, "RA_OF_ASC_NODE": 159.5823, "ARG_OF_PERICENTER": 271.16, "MEAN_ANOMALY": 88.9205, "EPHEMERIS_TYPE": 0, "CLASSIFICATION_TYPE": "U", "NORAD_CAT_ID": 66830, "ELEMENT_SET_NO": 999, "REV_AT_EPOCH": 513, "BSTAR": 0.001470227, "MEAN_MOTION_DOT": 0.00091456, "MEAN_MOTION_DDOT": 0}, "tle": {"line1": "1 66830U 25280K   25360.91004599  .00091456  00000+0  14702-2 0  9993", "line2": "2 66830  70.0006 159.5823 0003336 271.1600  88.9205 15.52557530  5132"}}, "geometry": {"type": "Point", "coordinates": [-31.45981092322678, 26.064552977948935]}}, {"type": "Feature", "properties": {"norad_id": 66831, "name": "STARLINK-35788", "group": "last-30-days", "lat": 24.285117562519627, "lon": -30.658410365669333, "alt_km": 408.97615768410014, "timestamp": "2025-12-27T04:40:44.219260+00:00", "meta": {"OBJECT_NAME": "STARLINK-35788", "OBJECT_ID": "2025-280L", "EPOCH": "2025-12-26T21:49:58.326240", "MEAN_MOTION": 15.52559152, "ECCENTRICITY": 0.0003343, "INCLINATION": 70.0002, "RA_OF_ASC_NODE": 159.5816, "ARG_OF_PERICENTER": 271.0995, "MEAN_ANOMALY": 88.9808, "EPHEMERIS_TYPE": 0, "CLASSIFICATION_TYPE": "U", "NORAD_CAT_ID": 66831, "ELEMENT_SET_NO": 999, "REV_AT_EPOCH": 513, "BSTAR": 0.0015759325, "MEAN_MOTION_DOT": 0.00098132, "MEAN_MOTION_DDOT": 0}, "tle": {"line1": "1 66831U 25280L   25360.90970285  .00098132  00000+0  15759-2 0  9998", "line2": "2 66831  70.0002 159.5816 0003343 271.0995  88.9808 15.52559152  5136"}}, "geometry": {"type": "Point", "coordinates": [-30.658410365669333, 24.285117562519627]}}, {"type": "Feature", "properties": {"norad_id": 66832, "name": "STARLINK-35768", "group": "last-30-days", "lat": 22.505537236051634, "lon": -29.882405409811028, "alt_km": 409.37398613728146, "timestamp": "2025-12-27T04:40:44.219270+00:00", "meta": {"OBJECT_NAME": "STARLINK-35768", "OBJECT_ID": "2025-280M", "EPOCH": "2025-12-26T21:49:28.751520", "MEAN_MOTION": 15.52560311, "ECCENTRICITY": 0.00033286, "INCLINATION": 70.0004, "RA_OF_ASC_NODE": 159.5791, "ARG_OF_PERICENTER": 276.5366, "MEAN_ANOMALY": 83.5442, "EPHEMERIS_TYPE": 0, "CLASSIFICATION_TYPE": "U", "NORAD_CAT_ID": 66832, "ELEMENT_SET_NO": 999, "REV_AT_EPOCH": 513, "BSTAR": 0.0015976916, "MEAN_MOTION_DOT": 0.00099511, "MEAN_MOTION_DDOT": 0}, "tle": {"line1": "1 66832U 25280M   25360.90936055  .00099511  00000+0  15977-2 0  9990", "line2": "2 66832  70.0004 159.5791 0003328 276.5366  83.5442 15.52560311  5130"}}, "geometry": {"type": "Point", "coordinates": [-29.882405409811028, 22.505537236051634]}}, {"type": "Feature", "properties": {"norad_id": 66833, "name": "STARLINK-35858", "group": "last-30-days", "lat": 20.740833027434874, "lon": -29.13286202691208, "alt_km": 409.7224221091028, "timestamp": "2025-12-27T04:40:44.219280+00:00", "meta": {"OBJECT_NAME": "STARLINK-35858", "OBJECT_ID": "2025-280N", "EPOCH": "2025-12-26T21:48:59.090400", "MEAN_MOTION": 15.52549508, "ECCENTRICITY": 0.00034277, "INCLINATION": 70.0005, "RA_OF_ASC_NODE": 159.5778, "ARG_OF_PERICENTER": 277.1369, "MEAN_ANOMALY": 82.9428, "EPHEMERIS_TYPE": 0, "CLASSIFICATION_TYPE": "U", "NORAD_CAT_ID": 66833, "ELEMENT_SET_NO": 999, "REV_AT_EPOCH": 513, "BSTAR": 0.0011302516, "MEAN_MOTION_DOT": 0.0007006, "MEAN_MOTION_DDOT": 0}, "tle": {"line1": "1 66833U 25280N   25360.90901725  .00070060  00000+0  11303-2 0  9994", "line2": "2 66833  70.0005 159.5778 0003427 277.1369  82.9428 15.52549508  5139"}}, "geometry": {"type": "Point", "coordinates": [-29.13286202691208, 20.740833027434874]}}, {"type": "Feature", "properties": {"norad_id": 66834, "name": "STARLINK-35840", "group": "last-30-days", "lat": 18.939743034951533, "lon": -28.387538121520482, "alt_km": 409.689419939451, "timestamp": "2025-12-27T04:40:44.219289+00:00", "meta": {"OBJECT_NAME": "STARLINK-35840", "OBJECT_ID": "2025-280P", "EPOCH": "2025-12-26T21:48:29.441376", "MEAN_MOTION": 15.52556936, "ECCENTRICITY": 0.00033227, "INCLINATION": 70.0005, "RA_OF_ASC_NODE": 159.5761, "ARG_OF_PERICENTER": 272.7007, "MEAN_ANOMALY": 87.3799, "EPHEMERIS_TYPE": 0, "CLASSIFICATION_TYPE": "U", "NORAD_CAT_ID": 66834, "ELEMENT_SET_NO": 999, "REV_AT_EPOCH": 513, "BSTAR": 0.0014979844, "MEAN_MOTION_DOT": 0.00093204, "MEAN_MOTION_DDOT": 0}, "tle": {"line1": "1 66834U 25280P   25360.90867409  .00093204  00000+0  14980-2 0  9994", "line2": "2 66834  70.0005 159.5761 0003322 272.7007  87.3799 15.52556936  5139"}}, "geometry": {"type": "Point", "coordinates": [-28.387538121520482, 18.939743034951533]}}, {"type": "Feature", "properties": {"norad_id": 66835, "name": "STARLINK-35890", "group": "last-30-days", "lat": 17.15123444514021, "lon": -27.663869247830593, "alt_km": 409.97261228784555, "timestamp": "2025-12-27T04:40:44.219300+00:00", "meta": {"OBJECT_NAME": "STARLINK-35890", "OBJECT_ID": "2025-280Q", "EPOCH": "2025-12-26T21:47:59.836416", "MEAN_MOTION": 15.52558431, "ECCENTRICITY": 0.00033531, "INCLINATION": 70.0006, "RA_OF_ASC_NODE": 159.5749, "ARG_OF_PERICENTER": 274.5404, "MEAN_ANOMALY": 85.54, "EPHEMERIS_TYPE": 0, "CLASSIFICATION_TYPE": "U", "NORAD_CAT_ID": 66835, "ELEMENT_SET_NO": 999, "REV_AT_EPOCH": 513, "BSTAR": 0.0014851439, "MEAN_MOTION_DOT": 0.000924, "MEAN_MOTION_DDOT": 0}, "tle": {"line1": "1 66835U 25280Q   25360.90833144  .00092400  00000+0  14851-2 0  9998", "line2": "2 66835  70.0006 159.5749 0003353 274.5404  85.5400 15.52558431  5133"}}, "geometry": {"type": "Point", "coordinates": [-27.663869247830593, 17.15123444514021]}}, {"type": "Feature", "properties": {"norad_id": 66836, "name": "STARLINK-35838", "group": "last-30-days", "lat": 15.35182876566982, "lon": -26.95119467308594, "alt_km": 410.1494222574047, "timestamp": "2025-12-27T04:40:44.219330+00:00", "meta": {"OBJECT_NAME": "STARLINK-35838", "OBJECT_ID": "2025-280R", "EPOCH": "2025-12-26T21:47:30.240960", "MEAN_MOTION": 15.52564155, "ECCENTRICITY": 0.00034003, "INCLINATION": 70.0007, "RA_OF_ASC_NODE": 159.5733, "ARG_OF_PERICENTER": 274.7267, "MEAN_ANOMALY": 85.3532, "EPHEMERIS_TYPE": 0, "CLASSIFICATION_TYPE": "U", "NORAD_CAT_ID": 66836, "ELEMENT_SET_NO": 999, "REV_AT_EPOCH": 513, "BSTAR": 0.0018118113, "MEAN_MOTION_DOT": 0.0011308, "MEAN_MOTION_DDOT": 0}, "tle": {"line1": "1 66836U 25280R   25360.90798890  .00113080  00000+0  18118-2 0  9995", "line2": "2 66836  70.0007 159.5733 0003400 274.7267  85.3532 15.52564155  5134"}}, "geometry": {"type": "Point", "coordinates": [-26.95119467308594, 15.35182876566982]}}, {"type": "Feature", "properties": {"norad_id": 66837, "name": "STARLINK-35729", "group": "last-30-days", "lat": 13.525402382775486, "lon": -26.240899155109027, "alt_km": 410.31788057691574, "timestamp": "2025-12-27T04:40:44.219344+00:00", "meta": {"OBJECT_NAME": "STARLINK-35729", "OBJECT_ID": "2025-280S", "EPOCH": "2025-12-26T20:14:13.805376", "MEAN_MOTION": 15.52564916, "ECCENTRICITY": 0.00032579, "INCLINATION": 70.0008, "RA_OF_ASC_NODE": 159.7484, "ARG_OF_PERICENTER": 276.3644, "MEAN_ANOMALY": 83.7172, "EPHEMERIS_TYPE": 0, "CLASSIFICATION_TYPE": "U", "NORAD_CAT_ID": 66837, "ELEMENT_SET_NO": 999, "REV_AT_EPOCH": 512, "BSTAR": 0.0019561791, "MEAN_MOTION_DOT": 0.00122247, "MEAN_MOTION_DDOT": 0}, "tle": {"line1": "1 66837U 25280S   25360.84321534  .00122247  00000+0  19562-2 0  9995", "line2": "2 66837  70.0008 159.7484 0003257 276.3644  83.7172 15.52564916  5124"}}, "geometry": {"type": "Point", "coordinates": [-26.240899155109027, 13.525402382775486]}}, {"type": "Feature", "properties": {"norad_id": 66838, "name": "STARLINK-35886", "group": "last-30-days", "lat": 9.96538910859801, "lon": -24.88852596563387, "alt_km": 410.6952928066703, "timestamp": "2025-12-27T04:40:44.219354+00:00", "meta": {"OBJECT_NAME": "STARLINK-35886", "OBJECT_ID": "2025-280T", "EPOCH": "2025-12-26T21:46:01.227360", "MEAN_MOTION": 15.52561276, "ECCENTRICITY": 0.0003378, "INCLINATION": 70.0009, "RA_OF_ASC_NODE": 159.5691, "ARG_OF_PERICENTER": 272.7575, "MEAN_ANOMALY": 87.3225, "EPHEMERIS_TYPE": 0, "CLASSIFICATION_TYPE": "U", "NORAD_CAT_ID": 66838, "ELEMENT_SET_NO": 999, "REV_AT_EPOCH": 513, "BSTAR": 0.0015769759, "MEAN_MOTION_DOT": 0.00098206, "MEAN_MOTION_DDOT": 0}, "tle": {"line1": "1 66838U 25280T   25360.90695865  .00098206  00000+0  15770-2 0  9998", "line2": "2 66838  70.0009 159.5691 0003378 272.7575  87.3225 15.52561276  5137"}}, "geometry": {"type": "Point", "coordinates": [-24.88852596563387, 9.96538910859801]}}, {"type": "Feature", "properties": {"norad_id": 66839, "name": "STARLINK-35717", "group": "last-30-days", "lat": 11.732141177872059, "lon": -25.55505196208155, "alt_km": 410.54316528849176, "timestamp": "2025-12-27T04:40:44.219364+00:00", "meta": {"OBJECT_NAME": "STARLINK-35717", "OBJECT_ID": "2025-280U", "EPOCH": "2025-12-26T21:46:30.789120", "MEAN_MOTION": 15.52580898, "ECCENTRICITY": 0.00034601, "INCLINATION": 70.0008, "RA_OF_ASC_NODE": 159.5705, "ARG_OF_PERICENTER": 276.0283, "MEAN_ANOMALY": 84.0509, "EPHEMERIS_TYPE": 0, "CLASSIFICATION_TYPE": "U", "NORAD_CAT_ID": 66839, "ELEMENT_SET_NO": 999, "REV_AT_EPOCH": 513, "BSTAR": 0.0020440645, "MEAN_MOTION_DOT": 0.00127914, "MEAN_MOTION_DDOT": 0}, "tle": {"line1": "1 66839U 25280U   25360.90730080  .00127914  00000+0  20441-2 0  9998", "line2": "2 66839  70.0008 159.5705 0003460 276.0283  84.0509 15.52580898  5138"}}, "geometry": {"type": "Point", "coordinates": [-25.55505196208155, 11.732141177872059]}}]}